{"type":"FeatureCollection","name":"query_3","crs":{"type":"name","properties":{"name":"urn:ogc:def:crs:OGC:1.3:CRS84"}},"features":[{"type":"Feature","properties":{"FID":1,"Fid_1":9,"Id":"00","Zonetype":21,"Zone":"A","Nimi":"A","Nimi_r":"A","Nimi_e":"A","Shape__Are":0,"Shape__Len":0,"Shape__Area":0.01529,"Shape__Length":0.57139},"geometry":{"type":"MultiPolygon","coordinates":[[[[24.8484820045409,60.2079910036819],[24.8704320050331,60.2112900029313],[24.8795321773682,60.2093899485873],[24.8810043954365,60.2098540239441],[24.8815716176361,60.2108942877413],[24.8821583200505,60.2109773158505],[24.8833952251096,60.211470575107],[24.884287960521,60.2115037205203],[24.8853916148312,60.2113536137783],[24.8865384123179,60.2112289011929],[24.8874570410097,60.2114406429714],[24.8882657077962,60.2116457387599],[24.8885359387826,60.2122922299025],[24.8888915909742,60.2124185720595],[24.8885788580279,60.2127023621244],[24.8889570049619,60.2147710033792],[24.8914526092506,60.2163727822781],[24.8928225150471,60.2170281227497],[24.8939633311429,60.2177444597391],[24.896004723839,60.2191431222573],[24.8964310933204,60.2192490147303],[24.8963940052791,60.219743003337],[24.8963462602717,60.2200320841134],[24.8969303897258,60.2205154454315],[24.898625850103,60.2229307879256],[24.8997923814133,60.2235820814479],[24.899096860132,60.2238900048199],[24.8996938858642,60.224308906331],[24.9003183705964,60.2246482223376],[24.9008535913202,60.2244651833216],[24.9010775521874,60.2254341587595],[24.902344453234,60.2258119261795],[24.905214430002,60.2261891468117],[24.905733253387,60.226205958738],[24.9057158047406,60.2263436017759],[24.909350004699,60.2269940031708],[24.9157361517021,60.2269244891739],[24.922923004693,60.2239610035975],[24.931483004637,60.2236070034605],[24.9337112296895,60.2252459477423],[24.9437590050741,60.2290800031397],[24.9506179868307,60.2304864663774],[24.9510358595173,60.2301610386011],[24.9525719402429,60.2305731268484],[24.9532663967269,60.2304614958014],[24.9535181412493,60.2301993542169],[24.9560672291194,60.2308808298865],[24.956898705411,60.2306327707858],[24.9598523452096,60.2292653992788],[24.9636150052283,60.2267760030102],[24.9631239654987,60.2232527838889],[24.9674810989736,60.2227348562287],[24.9680991292714,60.2231415233626],[24.9708930045086,60.2223490030041],[24.9740872516254,60.2191949447909],[24.9761057367904,60.2189441922208],[24.9793735466519,60.2187018564056],[24.9803034042787,60.2176457942181],[24.9823199262237,60.216948293529],[24.9834888973947,60.2166902411618],[24.9849737644278,60.215620520071],[24.9837323465706,60.214531429382],[24.9847240047091,60.2128700029483],[24.9858390048662,60.2080930029898],[24.9880530044426,60.2030730035164],[24.9968550047547,60.1952850032004],[25.0158060045435,60.1908730029867],[25.0216220047517,60.1864470030268],[25.0209777187468,60.1784383054834],[24.9994090047218,60.1685210028421],[24.9936520045364,60.1598680031059],[25.002369004526,60.1532760030851],[25.0260230044581,60.1384830034879],[25.0286110050939,60.1331830036927],[24.9748865816505,60.1247214741168],[24.9217441796502,60.1234668497154],[24.8356710046132,60.1304140037034],[24.8368280049086,60.136518003703],[24.8380220051115,60.1428410030099],[24.8382720049491,60.1441630037197],[24.839143004646,60.1486720030106],[24.8393780046912,60.149962003144],[24.8394350046218,60.1502630035349],[24.8408590046394,60.1510700029783],[24.84091600457,60.15518900317],[24.8409420048697,60.1570290034858],[24.8413410052832,60.1580110029055],[24.8417490052125,60.1590160033859],[24.8431790046074,60.1625810032108],[24.8442800050183,60.1652450028546],[24.8443490046029,60.1654220029232],[24.8444120048102,60.1655850032454],[24.8444050044874,60.1657190031295],[24.8443910047411,60.1660200035204],[24.8442350047417,60.1705050035031],[24.8441730045806,60.1723200035653],[24.844166005157,60.1725430030572],[24.8441460051341,60.1731350033778],[24.8441410049035,60.1732530034234],[24.8441400048574,60.1732770036309],[24.8441200048344,60.1735660034684],[24.8437230045131,60.1794280030999],[24.8436500047439,60.1807870037173],[24.8436370050438,60.1810210037164],[24.8433860051601,60.1854250035611],[24.8428340048854,60.1951330033855],[24.8427970049779,60.1957610035675],[24.842931004862,60.1960230030592],[24.8431070048844,60.1963690028273],[24.8439670049734,60.1980520030975],[24.8445620045329,60.1992170028624],[24.8459430052656,60.2019230035438],[24.8462260048263,60.2024760029652],[24.8464320044335,60.2028800036093],[24.8464760046639,60.2029670031247],[24.8468690048008,60.2037350034677],[24.8468440045472,60.2040000030977],[24.8468390052159,60.20405400289],[24.8468010052623,60.2044460029807],[24.8484820045409,60.2079910036819]]]]}},{"type":"Feature","properties":{"FID":2,"Fid_1":10,"Id":"01","Zonetype":21,"Zone":"B","Nimi":"B","Nimi_r":"B","Nimi_e":"B","Shape__Are":0,"Shape__Len":0,"Shape__Area":0.05599,"Shape__Length":1.41259},"geometry":{"type":"MultiPolygon","coordinates":[[[[25.1470510045003,60.2454690034918],[25.1598480046817,60.2380500031052],[25.1627718760213,60.2327849464681],[25.1670552902695,60.231751557988],[25.1819340051503,60.2288320033943],[25.2031270049074,60.2245600033415],[25.2021900048649,60.2210640031013],[25.2014240046142,60.2182050034582],[25.2046420046249,60.215075003009],[25.2092260046765,60.2106160033259],[25.220404004841,60.19973700346],[25.2195380044754,60.1979750031439],[25.1980550048347,60.1545040030574],[25.1942180050569,60.1466560035718],[25.1343565171396,60.1401515966189],[25.0286110050939,60.1331830036927],[25.0260230044581,60.1384830034879],[25.002369004526,60.1532760030851],[24.9936520045364,60.1598680031059],[24.9994090047218,60.1685210028421],[25.0209777187468,60.1784383054834],[25.0216220047517,60.1864470030268],[25.0158060045435,60.1908730029867],[24.9968550047547,60.1952850032004],[24.9880530044426,60.2030730035164],[24.9858390048662,60.2080930029898],[24.9847240047091,60.2128700029483],[24.9837323465706,60.214531429382],[24.9849737644278,60.215620520071],[24.9834888973947,60.2166902411618],[24.9823199262237,60.216948293529],[24.9803034042787,60.2176457942181],[24.9793735466519,60.2187018564056],[24.9761057367904,60.2189441922208],[24.9740872516254,60.2191949447909],[24.9708930045086,60.2223490030041],[24.9680991292714,60.2231415233626],[24.9674860560367,60.2227453998804],[24.9631239654987,60.2232527838889],[24.9636150052283,60.2267760030102],[24.9598523452096,60.2292653992788],[24.956898705411,60.2306327707858],[24.9560672291194,60.2308808298865],[24.9535181412493,60.2301993542169],[24.9532663967269,60.2304614958014],[24.9525719402429,60.2305731268484],[24.9510358595173,60.2301610386011],[24.9506179868307,60.2304864663774],[24.9437590050741,60.2290800031397],[24.9337112296895,60.2252459477423],[24.931483004637,60.2236070034605],[24.922923004693,60.2239610035975],[24.9157361517021,60.2269244891739],[24.909350004699,60.2269940031708],[24.9057158047406,60.2263436017759],[24.905733253387,60.226205958738],[24.905214430002,60.2261891468117],[24.902344453234,60.2258119261795],[24.9010775521874,60.2254341587595],[24.9008535913202,60.2244651833216],[24.9003183705964,60.2246482223376],[24.8996938858642,60.224308906331],[24.899096860132,60.2238900048199],[24.8997923814133,60.2235820814479],[24.898625850103,60.2229307879256],[24.8969303897258,60.2205154454315],[24.8963462602717,60.2200320841134],[24.8963940052791,60.219743003337],[24.8964310933204,60.2192490147303],[24.896004723839,60.2191431222573],[24.8939633311429,60.2177444597391],[24.8928225150471,60.2170281227497],[24.8914526092506,60.2163727822781],[24.8889570049619,60.2147710033792],[24.8885788580279,60.2127023621244],[24.8888915909742,60.2124185720595],[24.8885359387826,60.2122922299025],[24.8882657077962,60.2116457387599],[24.8874570410097,60.2114406429714],[24.8865384123179,60.2112289011929],[24.8853916148312,60.2113536137783],[24.884287960521,60.2115037205203],[24.8833952251096,60.211470575107],[24.8821583200505,60.2109773158505],[24.8815716176361,60.2108942877413],[24.8810043954365,60.2098540239441],[24.8795321773682,60.2093899485873],[24.8704320050331,60.2112900029313],[24.8484820045409,60.2079910036819],[24.8468010052623,60.2044460029807],[24.8468390052159,60.20405400289],[24.8468440045472,60.2040000030977],[24.8468690048008,60.2037350034677],[24.8464760046639,60.2029670031247],[24.8464320044335,60.2028800036093],[24.8462260048263,60.2024760029652],[24.8459430052656,60.2019230035438],[24.8445620045329,60.1992170028624],[24.8439670049734,60.1980520030975],[24.8431070048844,60.1963690028273],[24.842931004862,60.1960230030592],[24.8427970049779,60.1957610035675],[24.8428340048854,60.1951330033855],[24.8433860051601,60.1854250035611],[24.8436370050438,60.1810210037164],[24.8436500047439,60.1807870037173],[24.8437230045131,60.1794280030999],[24.8441200048344,60.1735660034684],[24.8441400048574,60.1732770036309],[24.8441410049035,60.1732530034234],[24.8441460051341,60.1731350033778],[24.844166005157,60.1725430030572],[24.8441730045806,60.1723200035653],[24.8442350047417,60.1705050035031],[24.8443910047411,60.1660200035204],[24.8444050044874,60.1657190031295],[24.8444120048102,60.1655850032454],[24.8443490046029,60.1654220029232],[24.8442800050183,60.1652450028546],[24.8431790046074,60.1625810032108],[24.8417490052125,60.1590160033859],[24.8413410052832,60.1580110029055],[24.8409420048697,60.1570290034858],[24.84091600457,60.15518900317],[24.8408590046394,60.1510700029783],[24.8394350046218,60.1502630035349],[24.8393780046912,60.149962003144],[24.839143004646,60.1486720030106],[24.8382720049491,60.1441630037197],[24.8380220051115,60.1428410030099],[24.8368280049086,60.136518003703],[24.8356710046132,60.1304140037034],[24.8157595405704,60.1247630209967],[24.7981111062426,60.117356564354],[24.7768513363202,60.1096684535364],[24.7708280046088,60.1150490029092],[24.7666300052706,60.1183500031502],[24.7636280053283,60.1215730033915],[24.7558830051966,60.1272950028621],[24.7514560051906,60.13098900324],[24.747145005138,60.1358750037285],[24.734749004563,60.1426070030108],[24.7293920048372,60.1467640031562],[24.7250300051307,60.1493700037228],[24.7236060051131,60.1517290036906],[24.7219270050273,60.1548770031712],[24.7208660046624,60.1558190034443],[24.7199950049655,60.1568960036477],[24.7189610049465,60.1584000028579],[24.7172200046995,60.1605220035876],[24.7152340048455,60.162341002935],[24.7132810047146,60.163697003414],[24.7107660047474,60.1654740035225],[24.7083750051025,60.1673850035152],[24.7057160047898,60.1693250030465],[24.7031490051226,60.1718290034058],[24.7008600047855,60.1741730035813],[24.6993590048143,60.1765170028575],[24.6979650052808,60.1791230034239],[24.6977210048206,60.1813620032539],[24.6975780045213,60.1846380032413],[24.6976540053282,60.1909820035167],[24.6992590046993,60.1989920032784],[24.6998580053427,60.2003400033885],[24.7009790048772,60.2029040029175],[24.7003750049026,60.2041020033049],[24.6986160047249,60.2065290037106],[24.6976260049362,60.2076210037064],[24.6935010053672,60.2082790034733],[24.6917280045438,60.2100530034434],[24.6972260053759,60.2205810033107],[24.7059880047427,60.2329340037014],[24.7089870045467,60.2347110029105],[24.717590004675,60.2382680032658],[24.7250430048309,60.2408980031404],[24.7310450046233,60.2432010032238],[24.7330270051922,60.2446590030106],[24.7380670046886,60.2470750029091],[24.7620680053342,60.2629270036783],[24.7658310052967,60.2648730034864],[24.7744000047564,60.2693040036769],[24.7845770046251,60.2729260034324],[24.7871160047998,60.2739170032671],[24.7970765927107,60.2799474836895],[24.8008224515949,60.2816734535671],[24.8055105229923,60.2837533021732],[24.8083947207398,60.2847879766838],[24.8117311245918,60.2858582391665],[24.814275264392,60.2868871769018],[24.8180487027855,60.2873722424351],[24.8213739424535,60.2877652443706],[24.8301070726833,60.2862725496385],[24.8396012452014,60.290866412555],[24.8404092267045,60.2917895720312],[24.8411912043107,60.2924595876399],[24.8416869016293,60.2925908859607],[24.8430391654252,60.2928456468092],[24.8439811719936,60.2917198637808],[24.8446541346806,60.2917598818132],[24.8494252944419,60.2924812037446],[24.8501560736439,60.2942541362195],[24.8546812913086,60.2946952887566],[24.8542627890965,60.295424510333],[24.8580857081889,60.296485039453],[24.8592729302016,60.2957419116599],[24.8623860090071,60.2971325774066],[24.8671080028321,60.2972790023242],[24.8708600049853,60.2979750029441],[24.8802478506578,60.298552578139],[24.8840858163074,60.2990820944631],[24.890869134503,60.2989152342507],[24.8978828158394,60.2989738295786],[24.9080848798134,60.2984514691601],[24.9093668076321,60.2987369967151],[24.910878560797,60.2990736911979],[24.9127574621872,60.3003385984476],[24.9138329272478,60.3005000555332],[24.9172351515811,60.2990552191231],[24.918204493043,60.2983870156483],[24.9214844167724,60.2976104114913],[24.9313954565351,60.2974891235243],[24.934933265358,60.2966978082573],[24.9373008142812,60.2965074937259],[24.9390630969844,60.2965096125287],[24.9397630384335,60.2966971004909],[24.9412661122414,60.2970484305407],[24.942218952043,60.2969874942775],[24.9426633079653,60.2963887868131],[24.9436093902612,60.2961148344321],[24.949674437925,60.296090301826],[24.9529999069202,60.2958393172308],[24.9551938228367,60.2958993892454],[24.9574915600875,60.2968415424033],[24.9594750049675,60.2968340033866],[24.959842114522,60.2960891363047],[24.9607184714803,60.2955221002647],[24.9616078749036,60.2949465971078],[24.9632301241709,60.2944063707575],[24.9647697005613,60.2939174273474],[24.9684269924118,60.2925803531008],[24.9712807499067,60.2913886155922],[24.9741196739838,60.2904331497701],[24.9764099999216,60.2897846756223],[24.9783663392352,60.2898276074582],[24.9798050044974,60.2902760031351],[24.9829440044623,60.2901080034816],[24.9836467320112,60.2891982025351],[24.9846772507545,60.2879390689329],[24.9856584120062,60.2874808400688],[24.9875909912313,60.2872536038708],[24.9907980051239,60.2872770033311],[24.9968984671905,60.288077941344],[25.0079152638784,60.2870029160518],[25.0082890050336,60.2874610028231],[25.0084390047563,60.2876270032836],[25.0084910044563,60.2876670033296],[25.0085650051709,60.2877070033755],[25.0086570049169,60.2877440032832],[25.0087640044553,60.287774002868],[25.008842004455,60.2877880035136],[25.0089670048235,60.2878010032138],[25.0095290046599,60.2878290036057],[25.0104480047717,60.2878010032138],[25.0105550052094,60.2877950029371],[25.0107090051166,60.2877750029141],[25.0108390048163,60.2877460033754],[25.0109300045161,60.2877180029835],[25.0110060044236,60.2876900034909],[25.0110740048615,60.2876580029146],[25.011536004583,60.2874040028925],[25.0115920044675,60.2873760033999],[25.0116520045364,60.2873560033769],[25.0117250052049,60.2873400035384],[25.0118050043975,60.2873300030772],[25.0118820052504,60.2873290030311],[25.0119430044662,60.2873330032156],[25.0120860047654,60.2873500031002],[25.0122090050416,60.2873730032616],[25.0123280051334,60.2874010036534],[25.0124410049485,60.2874350034227],[25.012517004856,60.2874630029153],[25.0135970051977,60.2878740029829],[25.0137570044822,60.2879770032362],[25.0139310044124,60.2881310031433],[25.014037004804,60.2882150034197],[25.0145580045483,60.2885440033032],[25.0147490052624,60.288623003349],[25.0151210044309,60.2887350031179],[25.0155290052595,60.2888410035096],[25.015810004728,60.2889000035324],[25.0162550045649,60.2889690031171],[25.0165360049327,60.2889820028172],[25.0172190049532,60.2889590035552],[25.017543004606,60.2889360033939],[25.0178910044663,60.2889040028175],[25.0181160049497,60.2888730031866],[25.0183410045338,60.2888630036248],[25.0184970045332,60.288868002956],[25.0186490052474,60.2888900030712],[25.018789004509,60.2889220036476],[25.0190460046694,60.2890150034397],[25.0192390045764,60.289089003255],[25.0195120045754,60.2891730035313],[25.0197270045977,60.2892170028625],[25.0205760050786,60.2893100035539],[25.0209060050082,60.2893180030235],[25.0212240043844,60.2892900035309],[25.0214090048217,60.2892630031851],[25.0216870050513,60.2891990029317],[25.0219720047043,60.2891070031857],[25.0225280051633,60.2888830036478],[25.0227620051625,60.2887730030717],[25.0230340051153,60.2886180031184],[25.0232720043995,60.288462003119],[25.0234590049292,60.2883070031657],[25.0236520048362,60.2881900031662],[25.0238600045356,60.2880940032357],[25.0241040049959,60.2880060027749],[25.0242320046034,60.2879650035821],[25.0244140049024,60.2879190032594],[25.0247420047398,60.287855003006],[25.0257680043899,60.2876990030067],[25.0259770050348,60.2876640031913],[25.0261410045038,60.2876290033759],[25.0264170046411,60.2875440030534],[25.0265790049172,60.2874790036532],[25.0267120047553,60.2874020028003],[25.0268560051006,60.2872890029852],[25.0269120049851,60.2871930030547],[25.0269620045929,60.2870670035394],[25.0270850048691,60.2868510034711],[25.027113005261,60.2868040031023],[25.0271410047536,60.2867270031487],[25.0271870050763,60.2865830028034],[25.0272150045689,60.2865340032417],[25.0272880052373,60.2864400034035],[25.0273240050988,60.2863870036574],[25.0274030051446,60.2863320029197],[25.0275370050288,60.2863130029428],[25.0276520049362,60.2862760030351],[25.0280590048193,60.2860970028744],[25.0283780051409,60.2859750035436],[25.0285900050247,60.2858920033133],[25.0286870050013,60.285869003152],[25.0287930044936,60.28582800306],[25.028886005185,60.2857750033138],[25.0290340048155,60.2857150032448],[25.0291490047229,60.2856780033372],[25.0296250050899,60.2855650035222],[25.0298420052044,60.2855240034301],[25.0302310051568,60.2854680035456],[25.030365005041,60.2854520028077],[25.0310590046694,60.2854330028309],[25.0312340046456,60.2854190030846],[25.0313640052447,60.2853990030616],[25.0314840044833,60.2853690034768],[25.0316730051052,60.2852860032465],[25.0319180047122,60.2852440031083],[25.0321400050572,60.2851610028781],[25.0322420052644,60.2851110032702],[25.0324590044795,60.2850320032244],[25.0325790046174,60.2850000035474],[25.0328380048701,60.2849630036397],[25.0331250046153,60.2849580034092],[25.0333100050527,60.2849630036397],[25.0335550046598,60.2849810035705],[25.0338140049125,60.2850380035011],[25.0340040046811,60.2851000036623],[25.0341890051185,60.2851710033392],[25.0342960046569,60.285221002947],[25.0344250052099,60.2853040031773],[25.0344900046101,60.2853640032462],[25.0345370049789,60.2854260034074],[25.0345650044714,60.2855660035682],[25.0345560049557,60.285708002922],[25.0345110046792,60.2858460029907],[25.0344560048408,60.2859750035436],[25.0344330046795,60.2861170028974],[25.0344430051406,60.2862780031274],[25.0344800050482,60.2863990033114],[25.0345040052557,60.2864450036341],[25.0345580050479,60.286508002942],[25.0347450046783,60.2866910032872],[25.0348980045393,60.2868320034942],[25.0351130045615,60.2870460034703],[25.0351900045151,60.2871430034469],[25.0352610050913,60.2872050036081],[25.035390004745,60.2872710030544],[25.0354890048138,60.2873090030081],[25.0356530051821,60.2873510031463],[25.0357400046975,60.2873640028465],[25.0360420051345,60.2873890031001],[25.0361920048572,60.2873930032845],[25.0363380043954,60.2873910031923],[25.0366950046708,60.2873660029388],[25.0367820050855,60.2873710031693],[25.0369960050616,60.2873990035612],[25.0371840047381,60.2874480031229],[25.0373390046914,60.2875000028229],[25.0374670051982,60.2875580027996],[25.0375520046214,60.2876050031684],[25.0375960048518,60.2876280033298],[25.0377270045976,60.2877290034908],[25.0378120049202,60.2878270035135],[25.0378560051506,60.2878990032365],[25.0378830045971,60.2879770032362],[25.0380010046427,60.2878480035826],[25.0380160044351,60.2878310027986],[25.0385090046869,60.2872920031235],[25.0385540049634,60.2872430035618],[25.0389340045007,60.2868260032175],[25.0392560049607,60.2864780033572],[25.0392980050989,60.2864330030807],[25.0393230044531,60.286407002781],[25.0393310048221,60.2863980032653],[25.0398110044743,60.2858820028522],[25.0400230052575,60.2856540031298],[25.0402340050953,60.2854270034535],[25.0403420046798,60.2853120035462],[25.0404660050022,60.2851940035005],[25.040879005162,60.2847360030642],[25.040646005209,60.2841370033201],[25.0407320046783,60.2840570032282],[25.0411990046304,60.283621002907],[25.0412370045842,60.2835850030455],[25.0415560049058,60.283287002793],[25.0420690051805,60.2831900028164],[25.0422560048108,60.2831570030933],[25.0422240051338,60.2830680034857],[25.0423630052485,60.2829470033016],[25.0425180052018,60.2828100032791],[25.0425550051094,60.2827790036482],[25.0427230047629,60.2826350033028],[25.0427700051317,60.2825970033491],[25.0430650052459,60.2823520028427],[25.0431520047613,60.282222003143],[25.043179005107,60.282182003097],[25.0432920049221,60.2820440030284],[25.0434070048295,60.2819050029136],[25.0433570052217,60.281888003029],[25.0437920045974,60.2813160036307],[25.0465361895936,60.2806991343576],[25.050126876754,60.2802986122912],[25.0611383161804,60.2794975528698],[25.0738423840189,60.2784414475149],[25.0784020052484,60.2772780035771],[25.0922430050107,60.2719860032515],[25.0939033324728,60.2717381339078],[25.09447185779,60.2720942465523],[25.0953994518233,60.2720942465523],[25.0984814581528,60.2704917068269],[25.1001870341044,60.2711594417549],[25.1015634644824,60.270773640691],[25.1047651597843,60.2694975000097],[25.1060219002905,60.2673754336294],[25.1084880050175,60.2665990030416],[25.1183726316917,60.2630708349511],[25.1228453532305,60.260550462434],[25.1254519041821,60.2572551944717],[25.1296740044518,60.2546070031108],[25.1309486711443,60.2542629971397],[25.1335280050135,60.2525140028191],[25.1470510045003,60.2454690034918]]]]}},{"type":"Feature","properties":{"FID":3,"Fid_1":11,"Id":"02","Zonetype":21,"Zone":"C","Nimi":"C","Nimi_r":"C","Nimi_e":"C","Shape__Are":0,"Shape__Len":0,"Shape__Area":0.08729,"Shape__Length":2.50275},"geometry":{"type":"MultiPolygon","coordinates":[[[[25.2544970023349,60.2952250020323],[25.2528070026411,60.2948990022872],[25.2507030027414,60.2944960016892],[25.2455570019541,60.2935110021311],[25.247933002706,60.2921670022054],[25.2512880027392,60.2902740021435],[25.2515680021616,60.2901150020058],[25.2512930020704,60.2896440018692],[25.2538900022219,60.2896310021691],[25.2458290028063,60.2858130023682],[25.2447770019571,60.2853200021165],[25.2438660022143,60.2848830017492],[25.2459720022062,60.2837260023532],[25.2473270026391,60.2829840023099],[25.2471140027091,60.2818260019685],[25.2471200020865,60.281336001855],[25.2470850022711,60.2785110019812],[25.2447840022799,60.2789610020487],[25.2441280026053,60.2783400021894],[25.2461240020211,60.2776030023767],[25.2466940022265,60.277718002284],[25.2522920022741,60.2757500023608],[25.2521130021134,60.2754670019007],[25.2517610020686,60.2748940024563],[25.251744002184,60.2748690022028],[25.2513340021625,60.2741980018364],[25.2509030020719,60.2735190020004],[25.2456720027608,60.2727170018882],[25.2429860021024,60.2722970023049],[25.2432770020321,60.2718360017302],[25.241613002638,60.2718360017302],[25.240600002688,60.2718700023988],[25.24030600262,60.2718790019144],[25.239650002046,60.2718900024217],[25.2376100023997,60.2719220020988],[25.234847002687,60.2719620021447],[25.2344740025732,60.2713980022161],[25.2318780024679,60.2672330017017],[25.2320780026977,60.2656950018229],[25.2318870019836,60.2653050018244],[25.2325600024422,60.2625490024346],[25.231577002077,60.262515001766],[25.2307000021034,60.2621560022977],[25.2306560027724,60.2616910024379],[25.2306110024958,60.2614190015857],[25.2302340021975,60.2614310021391],[25.2299410021756,60.2614140022545],[25.22978400213,60.2614120021622],[25.2285740020886,60.2613920021392],[25.2282090023436,60.2613820016781],[25.2276290025765,60.2612320019554],[25.2273410027851,60.2611030023018],[25.2288570025487,60.2599230018451],[25.2290980019712,60.2599970016603],[25.2292850025009,60.2598490020299],[25.2303660019895,60.2590110020561],[25.233531002254,60.2565500018811],[25.2374520023081,60.2562690024126],[25.2385900026266,60.2543390024431],[25.2392900025316,60.2531530017097],[25.2408250022721,60.2505490021348],[25.2407560026874,60.2492300024627],[25.2408630022258,60.2472670018707],[25.2409150019258,60.2463180021741],[25.2370870025632,60.2459900023368],[25.2270680027862,60.2451300022478],[25.2258930025601,60.2444510024119],[25.224819002495,60.2438300016533],[25.2231010024094,60.2428370017263],[25.2266310024189,60.2393650016935],[25.2043890019509,60.2298950020528],[25.2039870022984,60.2278350023835],[25.2036880019998,60.226555001812],[25.2031270022094,60.2245600024422],[25.1819340024523,60.2288320015957],[25.1670552902695,60.231751557988],[25.1627718760213,60.2327849464681],[25.1598480019837,60.2380500022059],[25.1470510027017,60.2454690016932],[25.1335280023155,60.2525140019197],[25.1309486711443,60.2542629971397],[25.1296740026531,60.2546070022115],[25.1254519041821,60.2572551944717],[25.1228453532305,60.260550462434],[25.1183726316917,60.2630708349511],[25.1084880023195,60.2665990021423],[25.1060219002905,60.2673754336294],[25.1047651597843,60.2694975000097],[25.1015634644824,60.270773640691],[25.1001870341044,60.2711594417549],[25.0984814581528,60.2704917068269],[25.0953994518233,60.2720942465523],[25.09447185779,60.2720942465523],[25.0939033324728,60.2717381339078],[25.0922430023128,60.2719860023522],[25.0784020025504,60.2772780017784],[25.0738423840189,60.2784414475149],[25.0611383161804,60.2794975528698],[25.050126876754,60.2802986122912],[25.0465361895936,60.2806991343576],[25.0437920027987,60.2813160018321],[25.0433570025237,60.2818880021297],[25.0434070021315,60.2819050020143],[25.0432920022242,60.2820440021291],[25.0431790024091,60.2821820021977],[25.0431520020633,60.2822220022437],[25.0430650025479,60.2823520019434],[25.0427700024337,60.2825970024497],[25.0427230020649,60.2826350024035],[25.0425550024115,60.2827790018495],[25.0425180025039,60.2828100023797],[25.0423630025506,60.2829470024023],[25.0422240024358,60.283068001687],[25.0422560021129,60.2831570021939],[25.0420690024825,60.2831900019171],[25.0415560022078,60.2832870018937],[25.0412370027855,60.2835850021462],[25.0411990028318,60.2836210020077],[25.0407320019804,60.2840570023288],[25.040646002511,60.2841370024208],[25.0408790024641,60.2847360021648],[25.0404660023042,60.2851940017019],[25.0403420019819,60.2853120017475],[25.0402340023974,60.2854270016549],[25.0400230025596,60.2856540022305],[25.0398110026757,60.2858820019529],[25.0393310021241,60.286398002366],[25.0393230026545,60.2864070018817],[25.0392980024009,60.2864330021814],[25.0392560022627,60.2864780024579],[25.0389340027021,60.2868260023182],[25.0385540022655,60.2872430017632],[25.0385090019889,60.2872920022242],[25.0380160026365,60.2878310018993],[25.0380010028441,60.2878480017839],[25.0378830027984,60.2879770023368],[25.0378560024526,60.2878990023372],[25.0378120022222,60.2878270017148],[25.037727002799,60.2877290016921],[25.0375960021538,60.2876280024304],[25.0375520028227,60.2876050022691],[25.0374670025002,60.2875580019003],[25.0373390019934,60.2875000019236],[25.0371840020401,60.2874480022236],[25.0369960023637,60.2873990017626],[25.0367820023876,60.28737100227],[25.0366950019728,60.2873660020394],[25.0363380025968,60.287391002293],[25.0361920021592,60.2873930023852],[25.0360420024365,60.2873890022008],[25.0357400019996,60.2873640019472],[25.0356530024841,60.287351002247],[25.0354890021158,60.2873090021088],[25.035390002047,60.2872710021551],[25.0352610023934,60.2872050018095],[25.0351900027165,60.2871430016482],[25.0351130027629,60.2870460016717],[25.0348980027407,60.2868320016956],[25.0347450019803,60.2866910023879],[25.03455800235,60.2865080020427],[25.0345040025577,60.2864450018354],[25.0344800023503,60.2863990024121],[25.0344430024427,60.2862780022281],[25.0344330019815,60.2861170019981],[25.0344560021429,60.285975001745],[25.0345110019812,60.2858460020914],[25.0345560022578,60.2857080020227],[25.0345650026728,60.2855660017696],[25.0345370022809,60.2854260016088],[25.0344900028114,60.2853640023469],[25.0344250025119,60.2853040022779],[25.034296001959,60.2852210020476],[25.0341890024206,60.2851710024399],[25.0340040019831,60.2851000018637],[25.0338140022145,60.2850380017024],[25.0335550019618,60.2849810017719],[25.0333100023548,60.2849630018411],[25.0331250028167,60.2849580016106],[25.0328380021721,60.2849630018411],[25.0325790028187,60.2850000017488],[25.0324590026809,60.2850320023251],[25.0322420025664,60.2851110023709],[25.0321400023593,60.2851610019787],[25.0319180020142,60.285244002209],[25.0316730024072,60.2852860023472],[25.0314840026846,60.2853690016781],[25.0313640025468,60.2853990021623],[25.031234002847,60.2854190021853],[25.0310590019714,60.2854330019316],[25.030365002343,60.2854520019084],[25.0302310024588,60.2854680017469],[25.0298420025065,60.2855240016314],[25.029625002392,60.2855650017235],[25.0291490020249,60.2856780024379],[25.0290340021176,60.2857150023455],[25.0288860024871,60.2857750024145],[25.028793002695,60.2858280021606],[25.0286870023033,60.2858690022527],[25.0285900023268,60.285892002414],[25.0283780024429,60.285975001745],[25.0280590021213,60.2860970019751],[25.0276520022381,60.2862760021358],[25.0275370023309,60.2863130020435],[25.0274030024466,60.2863320020203],[25.0273240024009,60.2863870018587],[25.0272880025394,60.2864400016048],[25.0272150027702,60.2865340023424],[25.0271870023783,60.2865830019041],[25.0271410020557,60.2867270022494],[25.0271130025631,60.286804002203],[25.0270850021712,60.2868510016725],[25.0269620027942,60.2870670017408],[25.0269120022871,60.2871930021554],[25.0268560024027,60.2872890020859],[25.0267120020573,60.2874020019009],[25.0265790022193,60.2874790018545],[25.0264170028424,60.287544002154],[25.0261410027052,60.2876290015772],[25.0259770023368,60.2876640022919],[25.0257680025913,60.2876990021073],[25.0247420020418,60.2878550021067],[25.0244140022045,60.2879190023601],[25.0242320028048,60.2879650017834],[25.0241040022979,60.2880060018755],[25.023860002737,60.2880940023364],[25.0236520021382,60.2881900022668],[25.0234590022312,60.2883070022664],[25.0232720026009,60.2884620022197],[25.0230340024173,60.2886180022191],[25.0227620024645,60.2887730021724],[25.0225280024654,60.2888830018491],[25.0219720020064,60.2891070022864],[25.0216870023533,60.2891990020324],[25.0214090021238,60.2892630022858],[25.0212240025857,60.2892900017322],[25.0209060023102,60.2893180021242],[25.0205760023807,60.2893100017552],[25.019727002799,60.2892170019632],[25.0195120027768,60.2891730017327],[25.0192390027778,60.2890890023556],[25.0190460019714,60.2890150016411],[25.0187890027104,60.288922001849],[25.0186490025495,60.2888900021719],[25.0184970027345,60.2888680020567],[25.0183410027352,60.2888630018261],[25.0181160022518,60.2888730022873],[25.0178910026677,60.2889040019182],[25.0175430028074,60.2889360015952],[25.0172190022552,60.2889590017566],[25.0165360022348,60.2889820019179],[25.0162550027662,60.2889690022178],[25.01581000203,60.2889000017337],[25.0155290025615,60.2888410017109],[25.0151210026322,60.2887350022186],[25.0147490025645,60.2886230024496],[25.0145580027497,60.2885440024039],[25.014037002106,60.2882150016211],[25.0139310026137,60.288131002244],[25.0137570026836,60.2879770023368],[25.0135970024997,60.2878740020836],[25.0125170021579,60.287463002016],[25.0124410022505,60.2874350016241],[25.0123280024354,60.2874010018548],[25.0122090023436,60.2873730023622],[25.0120860020674,60.2873500022009],[25.0119430026675,60.2873330023162],[25.0118820025525,60.2873290021318],[25.0118050025989,60.2873300021779],[25.0117250025069,60.2873400017397],[25.0116520027378,60.2873560015782],[25.0115920026689,60.2873760016013],[25.0115360027843,60.2874040019931],[25.0110740021635,60.2876580020152],[25.011006002625,60.2876900016923],[25.0109300027175,60.2877180020842],[25.0108390021183,60.2877460015767],[25.0107090024186,60.2877750020148],[25.0105550025114,60.2877950020378],[25.0104480020737,60.2878010023144],[25.0095290028613,60.287829001807],[25.0089670021255,60.2878010023144],[25.0088420026564,60.2877880017149],[25.0087640026567,60.2877740019687],[25.0086570022189,60.2877440023839],[25.0085650024729,60.2877070015769],[25.0084910026577,60.2876670024303],[25.0084390020584,60.2876270023843],[25.0082890023356,60.2874610019238],[25.0079152638784,60.2870029160518],[24.9968984671905,60.288077941344],[24.9907980024259,60.2872770024318],[24.9875909912313,60.2872536038708],[24.9856584120062,60.2874808400688],[24.9846772507545,60.2879390689329],[24.9836467320112,60.2891982025351],[24.9829440026637,60.290108001683],[24.9798050026988,60.2902760022358],[24.9783663392352,60.2898276074582],[24.9764099999216,60.2897846756223],[24.9741196739838,60.2904331497701],[24.9712807499067,60.2913886155922],[24.9684269924118,60.2925803531008],[24.9647697005613,60.2939174273474],[24.9632301241709,60.2944063707575],[24.9616078749036,60.2949465971078],[24.9607184714803,60.2955221002647],[24.959842114522,60.2960891363047],[24.9594750022696,60.296834001588],[24.9574915600875,60.2968415424033],[24.9551938228367,60.2958993892454],[24.9529999069202,60.2958393172308],[24.949674437925,60.296090301826],[24.9436093902612,60.2961148344321],[24.9426633079653,60.2963887868131],[24.942218952043,60.2969874942775],[24.9412661122414,60.2970484305407],[24.9397630384335,60.2966971004909],[24.9390630969844,60.2965096125287],[24.9373008142812,60.2965074937259],[24.934933265358,60.2966978082573],[24.9313954565351,60.2974891235243],[24.9214844167724,60.2976104114913],[24.918204493043,60.2983870156483],[24.9172351515811,60.2990552191231],[24.9138329272478,60.3005000555332],[24.9127574621872,60.3003385984476],[24.910878560797,60.2990736911979],[24.9096097549863,60.298791107124],[24.9080848798134,60.2984514691601],[24.8978828158394,60.2989738295786],[24.890869134503,60.2989152342507],[24.8840858163074,60.2990820944631],[24.8802478506578,60.298552578139],[24.8708600022873,60.2979750020448],[24.8671080028321,60.2972790023242],[24.8623860090071,60.2971325774066],[24.8592729302016,60.2957419116599],[24.8580857081889,60.296485039453],[24.8542627890965,60.295424510333],[24.8546812913086,60.2946952887566],[24.8501560736439,60.2942541362195],[24.8494252944419,60.2924812037446],[24.8446541346806,60.2917598818132],[24.8439811719936,60.2917198637808],[24.8430391654252,60.2928456468092],[24.8416869016293,60.2925908859607],[24.8411912043107,60.2924595876399],[24.8404092267045,60.2917895720312],[24.8396012452014,60.290866412555],[24.8301070726833,60.2862725496385],[24.8213739424535,60.2877652443706],[24.8180487027855,60.2873722424351],[24.814275264392,60.2868871769018],[24.8117311245918,60.2858582391665],[24.8083947207398,60.2847879766838],[24.8055105229923,60.2837533021732],[24.8008224515949,60.2816734535671],[24.7970765927107,60.2799474836895],[24.7871160021019,60.2739170023678],[24.7845770028265,60.2729260016337],[24.7744000020585,60.2693040018783],[24.7658310025988,60.2648730016878],[24.7620680026363,60.2629270018797],[24.7380670028899,60.2470750020098],[24.7330270024942,60.2446590021113],[24.7310450028247,60.2432010023244],[24.7250430021329,60.2408980022411],[24.7175900028764,60.2382680023665],[24.708987002748,60.2347110020112],[24.7059880020447,60.2329340019027],[24.697226002678,60.2205810024114],[24.6917280027452,60.2100530016448],[24.6935010026692,60.2082790016747],[24.6976260022383,60.2076210019077],[24.6986160020269,60.206529001912],[24.7003750022046,60.2041020024055],[24.7009790021793,60.2029040020182],[24.6998580026448,60.2003400024892],[24.6992590029007,60.198992002379],[24.6976540026301,60.1909820017181],[24.6975780027227,60.184638002342],[24.6977210021226,60.1813620023546],[24.6979650025829,60.1791230016253],[24.6993590021163,60.1765170019581],[24.7008600020875,60.1741730017827],[24.7031490024246,60.1718290016072],[24.7057160020919,60.1693250021472],[24.7083750024045,60.1673850017165],[24.7107660020494,60.1654740017239],[24.7132810020167,60.1636970016154],[24.7152340021476,60.1623410020356],[24.7172200029009,60.160522001789],[24.7189610022485,60.1584000019586],[24.7199950022676,60.1568960018491],[24.7208660028638,60.1558190016457],[24.7219270023293,60.1548770022719],[24.7236060024151,60.151729001892],[24.7250300024327,60.1493700019241],[24.7293920021393,60.1467640022569],[24.7347490027643,60.1426070021115],[24.7471450024399,60.1358750019298],[24.7514560024925,60.1309890023406],[24.7558830024986,60.1272950019628],[24.7636280026302,60.1215730024921],[24.7666300025726,60.1183500022508],[24.7708280028101,60.1150490020099],[24.7768513363202,60.1096684535364],[24.7968557479944,60.0903138236241],[24.6693643267024,60.0645708811413],[24.6598960024986,60.0756080025074],[24.6598680021066,60.0756390021383],[24.6598030027064,60.0757090017691],[24.659730002038,60.0757880018149],[24.6597020025454,60.0758190023452],[24.6596960022687,60.0758250017225],[24.6596000023383,60.0759290020219],[24.6595760021308,60.0759560023677],[24.6595510027766,60.0759830018142],[24.6595350020388,60.0760010017449],[24.6594400021544,60.0761040019981],[24.6594110026157,60.0761360016752],[24.6593870024083,60.0761620019749],[24.6592960027084,60.0762610020437],[24.6591390026629,60.0764320018355],[24.6591050028936,60.0764690017431],[24.6590180024789,60.0765640016274],[24.658990002087,60.0765940021116],[24.6589480028481,60.0766400024342],[24.6589300029174,60.0766590024111],[24.6589030025715,60.0766880019498],[24.6588970022949,60.0766950022726],[24.6588650026178,60.0767290020419],[24.6588370022259,60.0767600016728],[24.6587930028948,60.0768080020877],[24.6587850025259,60.0768170025027],[24.6587760021109,60.0768270020645],[24.6560960026285,60.0797440016844],[24.6558260027679,60.0800370017063],[24.6547950028871,60.0811540019557],[24.6545540025652,60.0814200016318],[24.651271002255,60.0849930018256],[24.6511610025782,60.0851130019635],[24.6510130020484,60.0852750022396],[24.6509030023717,60.0853940023314],[24.6507600020725,60.0855450021002],[24.6504090020738,60.0859250016376],[24.6498660022143,60.0865140018198],[24.6454750020698,60.0912490016402],[24.6454030023467,60.0913270016399],[24.6446530028339,60.092137002121],[24.644766002649,60.0922670018207],[24.6448480028331,60.092350002051],[24.6530880024094,60.1007760021109],[24.6547480025184,60.1061690016981],[24.6494190022852,60.1149730021024],[24.6479620025444,60.1173790024391],[24.6476680024764,60.1179290017221],[24.6431680027012,60.1263380018974],[24.642438002312,60.1277030018921],[24.6422160028663,60.1276880020997],[24.6411550025014,60.1300400017448],[24.6409490028942,60.1304830023887],[24.6400560021828,60.1312100017403],[24.6400130028978,60.1312450024549],[24.6399350028981,60.131309001809],[24.6381970027895,60.132725002357],[24.6393290028313,60.1334660023542],[24.640504002158,60.13423600189],[24.6410500021559,60.1345930021654],[24.6404240020661,60.1362880020897],[24.6387410026952,60.1367040023878],[24.6347310021341,60.1376960022687],[24.6316560024226,60.1421960020439],[24.6290150020408,60.1460630023058],[24.6267310028335,60.1494040016934],[24.619830002053,60.1526530022343],[24.6188090026334,60.1531340019327],[24.614652002488,60.1550900022019],[24.6131490024246,60.1557970024298],[24.6106020027802,60.1565510021271],[24.6102260025281,60.15666200185],[24.6095250025768,60.1568690024026],[24.6093010021396,60.156936001895],[24.6089540023254,60.1570400021944],[24.5994150022007,60.1598860021373],[24.5925540023654,60.1598770017223],[24.5890060024251,60.1639120016376],[24.5877830026835,60.1653020018859],[24.5770110023559,60.1637700022839],[24.5673820025774,60.1679260023832],[24.5722930024202,60.1726190020653],[24.5701160027514,60.1740850022211],[24.568472002481,60.1752230016403],[24.568291002228,60.1753480020087],[24.5682040027126,60.1754530023542],[24.5679990022522,60.1757630022608],[24.567954002875,60.1759390022832],[24.5679500026905,60.1761550023515],[24.5679290026214,60.1762860020974],[24.5679010022295,60.1763730016128],[24.5678160028064,60.176657002119],[24.5677890024605,60.1767360021648],[24.5676890023456,60.1770040019332],[24.567600002738,60.1772010020247],[24.5676020028302,60.177356001978],[24.5677030020919,60.1775870018387],[24.5678910026677,60.1778930024602],[24.5681500029203,60.1781530018596],[24.5684900024117,60.1784220016741],[24.5687390022032,60.1786050020193],[24.5688900028714,60.1787510024569],[24.5689960023637,60.1789580021102],[24.5690240027556,60.1791400024092],[24.5690760024556,60.1792930022703],[24.5689410025253,60.1793350024085],[24.5685160027114,60.1794740016239],[24.5637180026837,60.1808810017569],[24.5635630027305,60.1809200017567],[24.563499002477,60.1809360024945],[24.5631540027551,60.18102300201],[24.563053002594,60.1810480022635],[24.5604480020737,60.1816840019152],[24.5599720026059,60.1818020019609],[24.5588150023106,60.1820840023749],[24.5575970027995,60.1820760020059],[24.5570270025942,60.1822920020743],[24.5563210024124,60.1825360016352],[24.5547610024184,60.182877002072],[24.553379002539,60.1832550024165],[24.5538400022144,60.1840540023903],[24.5529200020565,60.1844810022965],[24.5522260024281,60.1847980016265],[24.5518140023144,60.1849870022484],[24.5515450024999,60.1851050022941],[24.5501950022976,60.1856960016692],[24.5492130028778,60.1861380022671],[24.5488220028332,60.1863160023817],[24.545539002523,60.1877790023991],[24.5416900021919,60.1894920022542],[24.5410460021713,60.1897780019533],[24.5380800020905,60.1910980016715],[24.5358450024449,60.1921160018521],[24.5325970028495,60.1935780018234],[24.5313720021163,60.1941410017059],[24.5302090024435,60.194677002142],[24.5286770028414,60.1953830023238],[24.5287530027489,60.1956080019078],[24.5280840024748,60.1960360018601],[24.5266960023187,60.1953930018856],[24.5248310026487,60.1954160020469],[24.5210360021098,60.1954620023696],[24.5163880027042,60.1955190023002],[24.5203950022276,60.1957100021149],[24.5234130029078,60.1958540024603],[24.5275940023614,60.1960530017447],[24.5279930027749,60.1960730017677],[24.5327100026645,60.1963030024816],[24.5334370029154,60.1963370022509],[24.5341190028897,60.196369001928],[24.5362056998332,60.1964677996493],[24.534485377698,60.1982387455217],[24.5336060053129,60.1990035712579],[24.5339577544469,60.2003729311659],[24.5346172839605,60.2019971499486],[24.5364067999339,60.2045595001209],[24.5359573997143,60.2047150000972],[24.535562600034,60.2048301996541],[24.5352193000307,60.2049709003868],[24.5350304001329,60.2050860999436],[24.534830857658,60.2053169882884],[24.5347042996638,60.205542399762],[24.5344988999043,60.205622899877],[24.5338466000406,60.2056655996877],[24.5339599002293,60.2060129997002],[24.5282794997991,60.2063392998189],[24.5280926998183,60.2061616999026],[24.527711499686,60.2062194004051],[24.5247470023723,60.2053490023546],[24.5032010025243,60.2128630017262],[24.5025980025958,60.2153630019011],[24.506692002534,60.2164020021507],[24.5068620022796,60.2165630023807],[24.507714002899,60.2173900018471],[24.5102630026355,60.2198760022757],[24.5106020020808,60.2199030017222],[24.5115910027226,60.2209070021565],[24.5115720027458,60.2211140018098],[24.5151210027321,60.2245050017045],[24.5170630023557,60.2264860022273],[24.5199420029211,60.2280130015988],[24.5215150026153,60.228884002195],[24.523567002815,60.2300060017756],[24.5246470022574,60.2305840023499],[24.5253020027852,60.230962001795],[24.5254060021853,60.2310220018639],[24.5253440029234,60.2335390019235],[24.5251470028319,60.2414520017086],[24.5250730021174,60.2444410019507],[24.525026002648,60.2463410023354],[24.5250190023252,60.2465810017119],[24.5247860023721,60.2466810018268],[24.5245850020962,60.2467620019649],[24.5234190022852,60.2472670018707],[24.5223320025199,60.2477330017767],[24.5207330025261,60.2484210020277],[24.520407002781,60.2485610021886],[24.5187130029028,60.2492880024394],[24.5177600021224,60.2496970024148],[24.5167760026105,60.2501140018597],[24.5154910027077,60.2506570017193],[24.5154360028693,60.2506800018807],[24.513431727892,60.2510067876332],[24.5105920870552,60.2518249260795],[24.5076379445356,60.2532225318944],[24.5062030024666,60.2546260021883],[24.505691002238,60.254845002395],[24.5043340026122,60.2554310024389],[24.5043370027505,60.2555140017698],[24.5043420020818,60.2559200016069],[24.504341002935,60.2559580024599],[24.5043470023123,60.2565810024114],[24.504353002589,60.257035001764],[24.5043630021509,60.2575350023386],[24.5043690024276,60.2588210022875],[24.5043650022431,60.259274001594],[24.5043720025659,60.2597220024685],[24.5043800029349,60.2601710024898],[24.5043920025889,60.2607570016344],[24.5043860023122,60.2610680024864],[24.5044030021969,60.2619380021371],[24.504405002289,60.2620520019984],[24.504405002289,60.262078002298],[24.5044070023813,60.2630460019715],[24.5044120026119,60.2659740020986],[24.5044160027963,60.2680460023212],[24.5044210021276,60.2686410018808],[24.5044280024504,60.2691340021325],[24.5044300025426,60.2695620020848],[24.5044310025888,60.2700750023595],[24.4982649088985,60.2739219558337],[24.4954206716267,60.2750566817205],[24.4953879794717,60.276029272433],[24.4972841379526,60.2763048346005],[24.4999243999911,60.278302927638],[24.4983350146493,60.2792071743717],[24.4987246800999,60.2799575659889],[24.5004749415654,60.2803014757326],[24.5014360704184,60.2796924377558],[24.5046726162483,60.2809566201519],[24.5049995395971,60.2815400733158],[24.5054732394984,60.2822073280058],[24.5133230196417,60.2814972871701],[24.5155690027074,60.2812910024778],[24.5155000022233,60.2814910018083],[24.5153180028236,60.2820260021983],[24.5148100027794,60.2835130024232],[24.5146620022497,60.2839470017528],[24.5143070020665,60.2849960024636],[24.5114580028846,60.2854920019544],[24.5105980027956,60.2856410016309],[24.5097480022686,60.2857880021147],[24.5088970025947,60.285935001699],[24.5078020024605,60.2861240023209],[24.4993020025854,60.2875920016696],[24.5050390027478,60.2894590023312],[24.507127002809,60.2901340019827],[24.5084810022965,60.2905760016812],[24.5107480025184,60.2913140024393],[24.5117400023992,60.2916400021844],[24.5120360025595,60.2917340020226],[24.5117240025607,60.2926000023883],[24.5113580027697,60.293683001969],[24.5106810021266,60.2956400022844],[24.5103800026351,60.2965360022347],[24.5094730021773,60.2979520018835],[24.5020366997339,60.3208684003565],[24.4903280024354,60.3279720022062],[24.4995070021465,60.3281450020903],[24.552398002266,60.3161240017213],[24.5529520026329,60.3160140020446],[24.5543640020971,60.3157370018612],[24.5548240026257,60.3156470022074],[24.5553760029003,60.3155370016314],[24.5563830025736,60.3153360022548],[24.5585040023579,60.3149130016338],[24.5586040024728,60.3148940016569],[24.5617280026453,60.3143040023279],[24.5624870025732,60.3141600019825],[24.566832002395,60.3154840018852],[24.5800970025746,60.3195700023538],[24.5886130022883,60.3221060023902],[24.5956540023304,60.3241850020362],[24.5976190021153,60.3259870023983],[24.5991800021554,60.3274180018394],[24.6009140020796,60.3290070022714],[24.6015380020772,60.3295780016235],[24.601594002861,60.329631002269],[24.6017800024452,60.3298070022914],[24.6019660029287,60.3299830023138],[24.6050000025481,60.3327800017957],[24.6050600026171,60.3328350016341],[24.6058180024989,60.333482001793],[24.6060090023137,60.3336620019999],[24.6069090024486,60.334391002343],[24.6079010023295,60.3352420020169],[24.6079750021447,60.3353520016936],[24.6138220028832,60.344068001637],[24.6151920022092,60.3460600017677],[24.6165600023423,60.3480420023366],[24.6180250024519,60.3501690023976],[24.6181570022439,60.3503610022585],[24.6203720027657,60.3523750016051],[24.6205590023961,60.3525450022501],[24.6215670021155,60.3535430024077],[24.6265720026958,60.3582130019286],[24.6275340020925,60.359311002201],[24.6360190021753,60.3582820024125],[24.6362660027739,60.3583210024124],[24.6397590028757,60.3588710016954],[24.6405130025731,60.3589940019717],[24.6406900026416,60.3590220023636],[24.6409240026406,60.3590590022712],[24.642297002105,60.3592720022012],[24.6427320023801,60.3593350024085],[24.6492410021706,60.3603530016898],[24.6500930027899,60.360485002381],[24.6502220024435,60.360505002404],[24.6520920023441,60.3608020017111],[24.6532120027318,60.3609780017334],[24.6647090023187,60.3627690015882],[24.6651270027091,60.3631150022556],[24.6656080024075,60.3635120016776],[24.6659610024983,60.3638040016534],[24.6661380025668,60.3636640023918],[24.6664590020814,60.3634930017007],[24.6668870020335,60.3633690022777],[24.6672980021012,60.3633280021856],[24.6680000020985,60.3632850020013],[24.6689020023256,60.3632090020938],[24.6691560023477,60.3631640018173],[24.669461002923,60.363058002325],[24.6698080027372,60.3628700017492],[24.670284002205,60.3625500022808],[24.6708620027792,60.3620340018678],[24.6713700028234,60.3615620016851],[24.671490002062,60.3614180022391],[24.6714980024309,60.3613960021239],[24.6715140022694,60.3613090017091],[24.6715470028919,60.3611780019633],[24.6716590026609,60.3611080023325],[24.6719030022218,60.3610070021714],[24.6721180022441,60.36081000208],[24.672431002289,60.3606350021037],[24.6729990024021,60.3604170019431],[24.6732050029086,60.3602670022204],[24.6734090024236,60.3600330022213],[24.6735430023078,60.3596180019693],[24.6736410023304,60.3595140016699],[24.6737570022839,60.3594590018315],[24.6739500021909,60.3594500023158],[24.6741880023745,60.3594480022236],[24.6745130020734,60.3594590018315],[24.6747590026259,60.3594930016008],[24.6750160027864,60.3595870023383],[24.6752010023245,60.3596430022228],[24.6753330021164,60.3596420021767],[24.6754550023466,60.3596110016464],[24.6755420027613,60.3595490023846],[24.6755390026229,60.3594450020852],[24.6755710023,60.3592670019706],[24.675612002392,60.3591360022248],[24.6757150026453,60.3590400022943],[24.6758370028754,60.3589870016489],[24.676179002459,60.3589810022715],[24.6768470026871,60.3590040024328],[24.6770750024095,60.3589900017872],[24.6773540026851,60.3589270015799],[24.6775630024306,60.358844002249],[24.6777010024993,60.3587340016729],[24.6781990020824,60.3585840019502],[24.6788630021259,60.3584370023658],[24.6795100022848,60.3583510019972],[24.6800010024444,60.3583310019742],[24.6804320025349,60.3583900019971],[24.6812000028779,60.3585730023422],[24.6814820023926,60.3586320023651],[24.6817810026912,60.358683002019],[24.6820010020447,60.3586900023418],[24.6822640024818,60.3586850021112],[24.6826930024801,60.3586390017886],[24.6830430024327,60.3585680021117],[24.6833900022469,60.3583920020893],[24.6836690025225,60.3583040016284],[24.6841770025667,60.3582530019745],[24.6844920027038,60.3582040024128],[24.6849790026789,60.3580570019291],[24.6853100026545,60.3580190019754],[24.6857820028372,60.3580370019062],[24.6861730028818,60.3581010021596],[24.6864530023043,60.3582270016748],[24.6866800028799,60.3583020024355],[24.6868860024871,60.3583470018127],[24.6870070026711,60.3583420015822],[24.6872320022551,60.3582910019283],[24.6874400028539,60.3582230023897],[24.6879740022984,60.3579990019524],[24.688618002319,60.3577930023453],[24.6891660024091,60.3576510020922],[24.6898470023373,60.3574940020466],[24.6903570024737,60.357417002093],[24.6908100026795,60.3573860024621],[24.6913160026315,60.3573950019778],[24.6917590023761,60.3574270016549],[24.6921800029049,60.3574650016086],[24.6923860025121,60.3574550020468],[24.6925350021887,60.357417002093],[24.6926540022804,60.3573630023008],[24.6928910024179,60.3571510024169],[24.6931060024401,60.3569760024406],[24.6932820024625,60.3568520021183],[24.6935150024155,60.3567060016807],[24.6935190025999,60.3567040015885],[24.6935290021618,60.356697002165],[24.6935930024152,60.356657002119],[24.6940940021365,60.3564100024198],[24.6947090026184,60.3561480020287],[24.6950120022022,60.3560630017062],[24.6953900025466,60.3560160022367],[24.6957460027759,60.3559970022599],[24.6960490023596,60.3559360021449],[24.6962830023587,60.3558630023757],[24.6964010024044,60.3557270023993],[24.6967170025877,60.3552520020783],[24.6971900028165,60.3547420019419],[24.6977310025837,60.3543050015746],[24.6978110026757,60.3542590021513],[24.6981310021441,60.3540740017139],[24.698505002304,60.3539150015761],[24.6991450021402,60.3536140020846],[24.6995230024846,60.3534570020391],[24.6995790023691,60.3534340018778],[24.6997800026451,60.3533500016014],[24.7003920020893,60.3530570015794],[24.7007040020881,60.3529390024331],[24.7009670025252,60.3528680018568],[24.7032730027469,60.3528560022028],[24.7035220025384,60.3528520020183],[24.7043900020969,60.3527030023417],[24.7113960023237,60.3509510015875],[24.7200080028671,60.3488560021029],[24.7224230027194,60.348241001621],[24.7248840028944,60.3476710023149],[24.7257400027989,60.3474590024311],[24.7263740023584,60.3473080017629],[24.7285370022809,60.3467880020647],[24.7314120026618,60.3460960016292],[24.732044002129,60.3459440018143],[24.7322950029121,60.3458840017453],[24.7339670026751,60.3454800020006],[24.7429690023176,60.3433010022395],[24.7449550021717,60.3428340022874],[24.749221002847,60.3417910018533],[24.7492880023395,60.3417840024298],[24.7503480026583,60.3424350018739],[24.7536760023457,60.3445000017737],[24.7543250025968,60.3449020023256],[24.7545900022268,60.3450690019329],[24.7548360027794,60.345222001794],[24.7558680027062,60.3458600024372],[24.7559610024983,60.3459170023678],[24.7563050021741,60.3461300022978],[24.7566340020576,60.3463350018589],[24.7566570022189,60.3463490016052],[24.7568460028408,60.3464660016048],[24.7568690021028,60.3464800022504],[24.7573640024468,60.3467870020186],[24.7574320028847,60.3468290021568],[24.7576690021228,60.3469760017412],[24.7577120023071,60.3470010019947],[24.7585770026266,60.3475380015776],[24.7627080024724,60.3500880022596],[24.7659550020218,60.3521060017906],[24.7710520023481,60.3555930016158],[24.7767560027874,60.3593650019933],[24.7815140027691,60.3629540020256],[24.7819945662962,60.3633110283813],[24.7814018501153,60.3638500091706],[24.7813497388994,60.3643524891761],[24.781975070793,60.3645328644002],[24.7815842380222,60.365228588029],[24.7825743466288,60.3655120273582],[24.7833500029004,60.3643180019743],[24.786611002196,60.3658530017147],[24.7876250021922,60.3665150016661],[24.7898930024601,60.3679940024213],[24.7942040025127,60.3708420024565],[24.7942530020744,60.3708710019952],[24.7965040024578,60.3723330019665],[24.79725400287,60.372855001757],[24.7976570025687,60.3731060016407],[24.7982850027507,60.3735120023771],[24.798777002057,60.3738350019838],[24.7992970026546,60.3741510021671],[24.7993660022393,60.3741890021208],[24.7996080026073,60.3743510023969],[24.800121002882,60.3746900018422],[24.8001890024206,60.3747230015653],[24.8010700025786,60.3752870023933],[24.8017920025989,60.3757740023684],[24.8024100023198,60.3761710017903],[24.802939002433,60.3765060019505],[24.8062330023512,60.3786540020806],[24.8070430028324,60.3791790020094],[24.8093060028698,60.3806330016118],[24.8094270021545,60.3807120016576],[24.8133950025774,60.383277002132],[24.8138980023909,60.3836090021538],[24.8141990027818,60.3838080023375],[24.8160360020599,60.385021001618],[24.8168020023106,60.385528001616],[24.8197370027605,60.3874440018392],[24.8223950021277,60.3891950016481],[24.8236250021922,60.3900060021753],[24.8256600025072,60.3913560023777],[24.8261860024821,60.3916700015694],[24.8274340024773,60.3924750018199],[24.8284900026116,60.3931540016559],[24.8305170025577,60.3944720021812],[24.8305340024423,60.3944800016508],[24.8308310026487,60.3945280020657],[24.8309120027868,60.3945400017197],[24.8357620025145,60.3953960016242],[24.848917002118,60.3977150024455],[24.854901002879,60.3987700016343],[24.859146002586,60.3995180019543],[24.8681860021823,60.4011090015792],[24.8689390027328,60.4012550020168],[24.8689500023408,60.4012180021091],[24.8689530024791,60.4012020022706],[24.8689600028019,60.4011670015559],[24.8689650021332,60.4011490016252],[24.8689750025944,60.4011130017637],[24.8689820020178,60.401096001879],[24.86898400211,60.4010920016946],[24.868992002479,60.4010750018099],[24.8690020020408,60.4010580019253],[24.8690480023635,60.4009900023868],[24.8690580028246,60.4009760017411],[24.8691050022941,60.4009090022487],[24.8691150027552,60.400891002318],[24.869125002317,60.4008740024333],[24.869133002686,60.4008560016032],[24.8691390020633,60.4008390017186],[24.8691430022478,60.4008210017878],[24.8691440022939,60.4008130023183],[24.8691460023862,60.4007950023875],[24.8691460023862,60.4007770015575],[24.86914500234,60.4007590016267],[24.8691410021556,60.4007410016959],[24.8691360028243,60.4007230017652],[24.8691220021787,60.4006880019498],[24.8691050022941,60.4006530021344],[24.8690850022711,60.4006190023651],[24.869073002617,60.4006020015811],[24.8690700024787,60.4005960022038],[24.8689170026176,60.4003940018818],[24.8689050020643,60.4003780020432],[24.8688830028483,60.4003430022278],[24.8688730023872,60.4003260023432],[24.8688700022489,60.4003200020665],[24.8688160024566,60.4001970017903],[24.8688090021338,60.4001800019056],[24.8687900021569,60.4001450020903],[24.8687800025951,60.4001280022056],[24.8687690020878,60.400111002321],[24.8687560023877,60.4000940024363],[24.8687420026413,60.4000770016523],[24.868727002849,60.4000610018138],[24.8687180024339,60.4000530023442],[24.8687000025031,60.4000380016525],[24.8686810025263,60.400022001814],[24.8686600024572,60.4000080020677],[24.868638002342,60.3999930022753],[24.8686150021807,60.3999800016758],[24.868566002619,60.3999530022293],[24.8684120027118,60.3998770023218],[24.8684040023429,60.3998730021374],[24.867939002483,60.3996470016079],[24.8675540027151,60.3994540017009],[24.8675200020465,60.3994370018162],[24.8675120025769,60.3994330016318],[24.8674990028767,60.3994260022083],[24.8672370024858,60.3993020018859],[24.8672120022322,60.3992890021858],[24.8671620026244,60.3992630018861],[24.8671380024169,60.3992500021859],[24.8670930021404,60.399222001794],[24.8670690028322,60.3992060019555],[24.8670080027172,60.3991610016789],[24.8670020024405,60.3991560023477],[24.8668630023258,60.3990510020022],[24.8668420022566,60.3990360022098],[24.8668310026487,60.399029001887],[24.8668100025796,60.3990140020946],[24.8665130023732,60.3988330018416],[24.8664920023041,60.3988180020492],[24.8664270020046,60.3987720017266],[24.8663880020047,60.3987420021417],[24.866370002074,60.3987260023032],[24.8663360023047,60.3986940017269],[24.8663050026738,60.3986620020498],[24.8662910020282,60.3986450021652],[24.866278002328,60.3986290023266],[24.8662670027201,60.398612002442],[24.866258002305,60.3985970017503],[24.8662480027432,60.3985800018656],[24.8662400023742,60.3985620019349],[24.8662250025819,60.3985270021195],[24.8662200023513,60.3985090021887],[24.8662150021207,60.3984920023041],[24.8662020024206,60.3984380016125],[24.8661990022822,60.3984200016818],[24.866198002236,60.3984110021661],[24.8661930020055,60.3983750023046],[24.8661910028126,60.3983570023738],[24.8661900027665,60.3983220016591],[24.8661910028126,60.3983040017284],[24.8661920028587,60.3982860017976],[24.8661940020516,60.3982680018668],[24.866198002236,60.3982500019361],[24.8662040025127,60.3982320020053],[24.8662110028355,60.3982150021207],[24.8662210023974,60.3981970021899],[24.8662320020053,60.3981800023053],[24.8662460026509,60.3981640015675],[24.866258002305,60.3981500018212],[24.8662750021896,60.3981340019827],[24.8662940021665,60.3981180021441],[24.8663140021895,60.3981040023979],[24.8663360023047,60.3980890017061],[24.866359002466,60.3980750019599],[24.8663830026735,60.3980620022597],[24.8664070028809,60.3980490016601],[24.8664330022813,60.39803600196],[24.8664580025348,60.3980230022598],[24.8664850028806,60.3980110017064],[24.8665050020043,60.3980020021907],[24.8665320023501,60.3979900016373],[24.8668430023027,60.3978670022604],[24.8668680025563,60.3978560017532],[24.8670300028324,60.3977840020301],[24.8671840027396,60.3977080021227],[24.8672090020938,60.3976950024225],[24.8672280020707,60.3976850019613],[24.8672520022781,60.3976720022612],[24.8673470021625,60.3976180015696],[24.8673910023929,60.3975890020309],[24.867412002462,60.3975750022846],[24.8674310024389,60.3975590024461],[24.8674500024158,60.3975440017543],[24.8674670023004,60.3975280019158],[24.8674690023926,60.3975270018697],[24.8674770027615,60.3975190024001],[24.8674940026461,60.3975030016622],[24.8675400020695,60.3974540021006],[24.8675550027612,60.397438002262],[24.8675820022077,60.3974050016396],[24.8675950028072,60.3973880017549],[24.8676200021614,60.3973520018934],[24.8676410022305,60.3973180021242],[24.8676500026456,60.3973010022395],[24.8676840024148,60.3972310017094],[24.8677380022071,60.3970900024017],[24.8677440024838,60.3970720015716],[24.8677450025299,60.3970690023327],[24.8678260026679,60.3968580015955],[24.8678320020453,60.3968400016648],[24.8678820025524,60.3966800023803],[24.867890002022,60.3966450016655],[24.8678940022065,60.3966270017348],[24.8679050027138,60.3965740019887],[24.8679080028521,60.3965560020579],[24.8679080028521,60.3965380021272],[24.867907002806,60.3965020022657],[24.867910002045,60.3964840023349],[24.8679120021372,60.3964770020121],[24.8679170023678,60.396465002358],[24.8679450027597,60.396395001828],[24.8679560023677,60.3963600020126],[24.867959002506,60.3963460022662],[24.8679620026443,60.3963280023355],[24.8679650027827,60.3963100024047],[24.8679680020217,60.3962740016439],[24.8679620026443,60.396131002244],[24.8679620026443,60.3961280021057],[24.8679540022754,60.3960020016911],[24.8679410025753,60.3959130020834],[24.8679370023908,60.3958950021527],[24.867927002829,60.395857002199],[24.8679040026676,60.3957860016228],[24.8678970023448,60.395768001692],[24.8678100028294,60.3955760018311],[24.867806002645,60.3955670023154],[24.8677620024145,60.3954620019699],[24.8677560021379,60.3954440020391],[24.8677500027605,60.3954260021084],[24.8677490027143,60.3954200018317],[24.8677050024839,60.3952420017171],[24.8677000022533,60.3952240017863],[24.8676950020228,60.3952080019478],[24.8676340028071,60.3950310018793],[24.8676290025765,60.3950130019485],[24.8676210022076,60.394977002087],[24.8676180020692,60.3949600022024],[24.8676140027841,60.3949220022487],[24.8676150028302,60.3948860023872],[24.8676160028763,60.3948680015571],[24.8676170020231,60.394864002272],[24.8676220022537,60.3948280024105],[24.8676260024381,60.3948100015804],[24.8676360019999,60.3947740017189],[24.8676420022766,60.3947570018343],[24.8676490025994,60.3947390019035],[24.8676570020691,60.3947220020189],[24.8676640023918,60.3947070022264],[24.8676720027607,60.3946900023418],[24.8676820023226,60.3946730015578],[24.8677040024378,60.3946380017425],[24.8677160020919,60.3946210018578],[24.8677290026914,60.3946050020193],[24.8677430024376,60.3945880021346],[24.867757002184,60.3945720022961],[24.8678040025527,60.3945230018351],[24.867838002322,60.3944910021581],[24.8678560022528,60.3944760023656],[24.8678930021604,60.3944450018354],[24.8679120021372,60.394430002043],[24.8679740022984,60.3943850017665],[24.8679830027135,60.3943790023891],[24.8680040027825,60.3943640016974],[24.8680720023211,60.3943220015592],[24.8681190026899,60.3942950021127],[24.868143001998,60.3942810023664],[24.8682190028048,60.3942420023666],[24.8682990019974,60.3942060016058],[24.8683540027351,60.3941830023438],[24.8684120027118,60.3941610022285],[24.8684410022505,60.3941510017674],[24.8684710027346,60.3941410022055],[24.8685020023656,60.3941310017444],[24.8685330019965,60.3941220022287],[24.8685560021578,60.3941150019058],[24.8686200024112,60.3940980020212],[24.8689470022024,60.3940200020215],[24.8689800028249,60.3940130016987],[24.8690760027554,60.3939870022984],[24.8691080024324,60.3939790019294],[24.8691390020633,60.3939690023676],[24.8691690025475,60.3939600019526],[24.8691990021323,60.3939500023907],[24.8692270025242,60.3939400019296],[24.8692560020629,60.3939290023217],[24.8693110028006,60.3939050021142],[24.869338002247,60.3938930015609],[24.8693640025467,60.3938810019068],[24.8694140021545,60.3938550016071],[24.8694620025694,60.3938280021606],[24.8694860027769,60.3938140024143],[24.8695980025458,60.3937440018842],[24.8696040028225,60.3937400016998],[24.8698330025911,60.393578002323],[24.8698540026601,60.3935630016313],[24.8699620022447,60.3934910019083],[24.869985002406,60.393477002162],[24.8700540019906,60.3934360020699],[24.8700790022442,60.3934230023697],[24.8701540021056,60.3933840023699],[24.8701800024052,60.3933710017704],[24.870207002751,60.3933590021163],[24.8702240026357,60.3933510017474],[24.8702520021283,60.3933400021394],[24.8703090020588,60.3933170019781],[24.8703370024508,60.3933060023702],[24.8704260020584,60.3932750018399],[24.8704560025425,60.3932650022781],[24.8708260025181,60.3931520015637],[24.8708540020106,60.393143002048],[24.8709450026099,60.3931140016099],[24.8709750021947,60.3931040020481],[24.871211002286,60.3930200017717],[24.8713800028848,60.3929520022332],[24.8714080023774,60.3929410017259],[24.8715690026074,60.3928680019568],[24.8715950020078,60.3928560023027],[24.8716080026073,60.3928490019799],[24.8717340021225,60.3927850017265],[24.8717590023761,60.3927710019802],[24.8719010026292,60.3926900018421],[24.8720330024212,60.3926040023729],[24.8720380026518,60.3926010022345],[24.8721000028129,60.3925570020041],[24.8721980028356,60.3924810020966],[24.8722170028125,60.3924660023042],[24.8723060024201,60.3923880023045],[24.8723230023048,60.3923720015667],[24.872386002512,60.3923070021665],[24.8724010023045,60.392291002328],[24.8724710028346,60.3922080020977],[24.8724800023503,60.3921960024436],[24.8725910020731,60.3920440017293],[24.8726050027187,60.3920270018447],[24.8726490020499,60.3919780022831],[24.8726820026723,60.3919460017067],[24.8727180025338,60.3919150020757],[24.8727380025568,60.3919000022833],[24.8727610027182,60.3918840024448],[24.8727830028334,60.3918690017531],[24.8728050020492,60.3918550020068],[24.8728290022567,60.3918420023066],[24.8728780027177,60.3918150019608],[24.8729290023716,60.3917900017072],[24.8729830021639,60.3917660023992],[24.8730110025558,60.3917550018919],[24.8733240026007,60.3916320016156],[24.873350002001,60.3916220020538],[24.8740330020215,60.3913280019858],[24.874118002344,60.3912940022165],[24.8741440026437,60.3912840017553],[24.8747930019955,60.3910540019407],[24.8748220024335,60.3910440023789],[24.8749640026866,60.3909880015951],[24.8749920021792,60.3909770019871],[24.8750200025711,60.390965002333],[24.8750470020176,60.3909530017797],[24.8751520023631,60.390904002218],[24.8751780026627,60.3908910016185],[24.875353002639,60.3908000019186],[24.8758450028446,60.3905130021733],[24.8758680021066,60.3904990024271],[24.8758790026139,60.3904930021504],[24.8761420021517,60.3903450016206],[24.8762080024974,60.3903020023356],[24.8762290025664,60.39028800169],[24.8762500026356,60.3902730018976],[24.8762880025893,60.3902420022666],[24.87630600252,60.3902270015749],[24.8763230024047,60.3902110017364],[24.8763400022893,60.3901950018979],[24.8763550020817,60.3901790020594],[24.8763700027735,60.3901620021747],[24.8763840025197,60.3901460023362],[24.8763880027042,60.3901410021056],[24.8764010024044,60.390124002221],[24.8764130020584,60.3901080023825],[24.8765210025423,60.3899740015989],[24.8765350022886,60.3899580017604],[24.876539002473,60.3899530024292],[24.8767640020571,60.3896880018998],[24.8767780027027,60.3896720020613],[24.8767860021723,60.3896620016001],[24.8768140025642,60.389629001877],[24.8768820021028,60.3895460016467],[24.8769180028636,60.3894950019928],[24.8769380028866,60.3894610022235],[24.8769550027712,60.3894260024081],[24.8769600021025,60.389416001947],[24.8769660023792,60.3893980020162],[24.8769720026559,60.3893810021316],[24.8769780020332,60.3893630022009],[24.8769820022177,60.3893450022701],[24.8769860024021,60.3893270023393],[24.8769920026788,60.3892740016939],[24.8769960028633,60.3891840020401],[24.8769950028172,60.3891660021094],[24.8769950028172,60.3891520023631],[24.8769900025866,60.3889910021331],[24.8769900025866,60.3889730022024],[24.8769940027711,60.38890100158],[24.8769960028633,60.3888830016493],[24.8769970020101,60.3888790023641],[24.8770000021484,60.3888610024334],[24.8770160028863,60.3887900018572],[24.8770880026093,60.3885770019272],[24.8770950020328,60.3885590019964],[24.8771000022633,60.3885430021579],[24.8771310027936,60.3884360017202],[24.8771600023323,60.3882930023203],[24.8771630024706,60.3882750023895],[24.8771700027934,60.3881680019518],[24.8771700027934,60.388150002021],[24.8771700027934,60.388141001606],[24.8771700027934,60.3881230016752],[24.8771600023323,60.3879980022061],[24.8771050024939,60.3877120016077],[24.8771010023095,60.3876960017691],[24.8770660024941,60.3875170016084],[24.8770330027709,60.3872660017246],[24.8770310026787,60.3872310019092],[24.8770300026326,60.3872130019785],[24.8770300026326,60.3872060016557],[24.8770290025864,60.3871700017942],[24.8770290025864,60.3871520018635],[24.87703600201,60.3870260023482],[24.8770380021022,60.3870090015643],[24.8770550028862,60.3869190019105],[24.8770710027246,60.3868660021643],[24.877077002102,60.3868480022336],[24.8770910027476,60.3868130024182],[24.8772090027933,60.3865680019118],[24.8772120020323,60.386561001589],[24.8772460027009,60.3864720019814],[24.8772520020783,60.3864550020967],[24.8772750022396,60.3863660015897],[24.8772840026547,60.3862940018668],[24.8772850027008,60.3862400020745],[24.8772830026085,60.386204002213],[24.8772810025163,60.3861860022822],[24.8772740021935,60.3861500024207],[24.8772710020551,60.3860780017984],[24.877270002009,60.3860690022827],[24.8772570023089,60.3859800017757],[24.8772560022628,60.3859760015912],[24.8772430025626,60.3858870019836],[24.8772410024703,60.3858720021912],[24.8772300028624,60.3858000015689],[24.8772210024474,60.3857650017535],[24.8772150021707,60.3857440016844],[24.8771760021708,60.385657002169],[24.8771710028395,60.3856430024227],[24.8771420024015,60.3855550019618],[24.8771390022632,60.3855450024],[24.8771030024017,60.3854570019391],[24.8771010023095,60.3854520017086],[24.8770660024941,60.385364002147],[24.877057002079,60.3853450021701],[24.8770270024942,60.3852930015708],[24.8770200021714,60.3852820019629],[24.8769750027942,60.3851950024475],[24.8769710026097,60.3851860020324],[24.8769110025408,60.3850640018023],[24.8769030021718,60.3850470019177],[24.8768260022183,60.384909001849],[24.87682300208,60.3849030015723],[24.8767590027259,60.3847810022415],[24.8767490022647,60.3847640023569],[24.8767250020572,60.3847300016883],[24.8766980026108,60.3846970019652],[24.8766830028184,60.3846800020805],[24.8766700022189,60.3846660023342],[24.8766370024957,60.3846340017578],[24.8766010026342,60.3846030021269],[24.8765980024959,60.3846000019885],[24.8765020025654,60.3845220019888],[24.8764290027963,60.3844600018277],[24.8764120020123,60.3844440019892],[24.8763560021279,60.3843980016665],[24.8763160020819,60.3843680020817],[24.8763100027045,60.3843640018972],[24.8762240023359,60.3843060019205],[24.8762080024974,60.3842940022665],[24.8761880024744,60.3842790015747],[24.8761520026129,60.3842480019438],[24.8761350027282,60.3842330021514],[24.8761300024977,60.3842280019208],[24.8760330025211,60.3841320019903],[24.8760280022905,60.3841270017598],[24.8759150024754,60.3840350020138],[24.8759020027753,60.3840240024059],[24.8758520022681,60.383976001991],[24.8758480020837,60.3839720018065],[24.8758110021761,60.3839410021756],[24.8757940022914,60.3839260023831],[24.8757780024529,60.3839100016453],[24.8757660027989,60.383896001899],[24.875750002061,60.3838790020144],[24.8757380024069,60.3838670023603],[24.8757190024301,60.3838490024296],[24.8756940021765,60.3838290024066],[24.875690001992,60.3838270023144],[24.8756710020152,60.3838110015765],[24.875658002315,60.3837990019225],[24.8756280027302,60.3837660021993],[24.8756120019924,60.3837520015537],[24.8755960021538,60.3837360017151],[24.8755870026381,60.3837240020611],[24.8755760021309,60.3837070021764],[24.8755620023845,60.383691002338],[24.8755470025922,60.3836750016001],[24.8755320027997,60.3836560016233],[24.8755210022925,60.3836390017386],[24.8755110027307,60.3836250019923],[24.8755000022234,60.3836080021077],[24.875497002085,60.3836030018771],[24.8754710026847,60.3835690021078],[24.875456001993,60.383550002131],[24.875445002385,60.3835330022463],[24.8754420022466,60.3835260019235],[24.8754360028693,60.3835080019928],[24.8754270024543,60.383490002062],[24.8754260024081,60.3834840017853],[24.8754240023159,60.3834660018546],[24.8754230022698,60.3834530021544],[24.8754200021314,60.3834350022236],[24.8754170019931,60.3834170022929],[24.8754150028002,60.3834060017856],[24.8754130027079,60.3833880018549],[24.8754160028463,60.3833770022469],[24.8754210021776,60.3833590023162],[24.8754220022237,60.3833560021778],[24.8754280025004,60.3833200023163],[24.8754320026848,60.383309001809],[24.8754420022466,60.3832920019244],[24.8754590021313,60.3832760020859],[24.8754780021081,60.3832610022935],[24.8754980021312,60.3832460016017],[24.8755180021541,60.3832310018093],[24.8755610023384,60.3832020022707],[24.8755670026151,60.3831980020862],[24.8755890027304,60.3831840023399],[24.8756130020384,60.3831700016943],[24.8756360021998,60.3831570019941],[24.8759270021295,60.3829960017641],[24.8759450020602,60.3829870022484],[24.8759680022216,60.3829730016028],[24.875992002429,60.3829590018565],[24.8761260023132,60.3828750015801],[24.8762300026126,60.3828010017648],[24.8762400021744,60.3827940023414],[24.876317002128,60.3827330022263],[24.8763350020587,60.3827170023878],[24.8764220024735,60.3826390023881],[24.8764390023581,60.3826230016502],[24.8764550021966,60.3826070018117],[24.8765480019887,60.3825090017891],[24.8765600025421,60.3824960020889],[24.8765890020808,60.3824630023657],[24.876631002219,60.3824620023196],[24.8767160025415,60.3824580021351],[24.8768600028869,60.3824660016048],[24.8770220022636,60.3824750020198],[24.8800300024827,60.380603002027],[24.8826290027263,60.3789720023561],[24.8852230027395,60.3773660020394],[24.8883450028197,60.3754330019315],[24.8897150021457,60.3745780020732],[24.8944390023581,60.3716130020385],[24.895572002446,60.3709560023177],[24.8989480025483,60.3690600021175],[24.9034720025309,60.3665170017583],[24.9037870026681,60.3663330022663],[24.9060840024748,60.3650410020406],[24.9065040020581,60.3648070020416],[24.9179691998187,60.3562157002944],[24.9376830027684,60.3503530018896],[24.9463192778124,60.3482744285221],[24.9625290028113,60.3496360020999],[24.9992737053173,60.3564974183212],[25.0079480027981,60.3589230022948],[25.0258180021991,60.364831002249],[25.0211610023784,60.3678600016378],[25.0213200025162,60.3679190016607],[25.0252620026394,60.3693740022085],[25.0253580025698,60.3694120021622],[25.0283680019817,60.3705290024116],[25.0312820023626,60.3715780022231],[25.0346060027649,60.369450002116],[25.0383020023356,60.370809001834],[25.040686002557,60.3693430016783],[25.0429810022715,60.3679390016836],[25.0441270020596,60.3684150020508],[25.0443620021048,60.3685120020273],[25.0461840024898,60.3692670017708],[25.0475350027382,60.3698260023681],[25.0502190024051,60.3709370023408],[25.0502800025201,60.3711050019943],[25.0507790021493,60.3721980020362],[25.0518230026295,60.3728470022874],[25.0519300021679,60.3728560018031],[25.0520770026516,60.3728690024026],[25.05288000281,60.3734500022159],[25.0536950026223,60.3733810017319],[25.0543460020664,60.3737340018228],[25.059578002323,60.3715470016928],[25.0619740021985,60.3705590019964],[25.0725230021349,60.3735460021463],[25.0736990024071,60.3738430023527],[25.074559002496,60.3739840016604],[25.076231002259,60.3729030021719],[25.0773520026928,60.3735990018925],[25.0781600021824,60.3732730021474],[25.0787680023415,60.3739090017991],[25.0790200022714,60.3744750018199],[25.081527002769,60.3734570016394],[25.0826900024417,60.372985002356],[25.082805002349,60.3729390020334],[25.0831670019556,60.3727930015958],[25.0835610021386,60.3726330023113],[25.0839260027828,60.3724850017815],[25.0844000021584,60.3722930019206],[25.0845990023421,60.3722120017825],[25.0839580024599,60.3715580022001],[25.0833780026927,60.3709490019949],[25.0831450027397,60.3706900017422],[25.0828960020489,60.3704370017663],[25.0843670024353,60.3702840019052],[25.0847430026875,60.3702460019515],[25.0851750028241,60.3702020017211],[25.0852310027087,60.3697620021148],[25.0853850026159,60.3697380019073],[25.0856790026839,60.3696930016308],[25.0873380027467,60.3694380015626],[25.08855800235,60.36924900184],[25.0885050026038,60.369217002163],[25.0884740020736,60.3691980021861],[25.088144002144,60.3689730017027],[25.0877140020996,60.3686790016347],[25.0871260019635,60.3682790020744],[25.0854050026388,60.3671060019405],[25.0887070020266,60.3665710015505],[25.0889790019794,60.3665270022194],[25.089065002348,60.3665130015738],[25.089177002117,60.366495001643],[25.0896900023918,60.3664130023582],[25.0898630022758,60.3663830018741],[25.0903790026888,60.3662990015977],[25.0904700023888,60.3662970024048],[25.0913480024084,60.3662770023818],[25.091963001991,60.3662620016901],[25.09326700277,60.3662320021053],[25.0960170027825,60.3661610024284],[25.0967260022033,60.3661420015522],[25.0972970024548,60.3661260017137],[25.0974810028461,60.3661210023824],[25.0985210022425,60.3660950020827],[25.0987890020109,60.3660860016677],[25.0996210026073,60.3660630024057],[25.1014880023695,60.3660110018063],[25.1052770026316,60.3659210021526],[25.1069890024406,60.3658740017838],[25.1124560027424,60.3657460021763],[25.1134040023928,60.3657180017844],[25.1142610023434,60.3656980017614],[25.1146250020423,60.3656900022918],[25.1148290024565,60.3652310018093],[25.1151480027781,60.3645320019504],[25.1157520027528,60.3646000023883],[25.1173270025392,60.3610970018252],[25.1328628556363,60.3608573855599],[25.1328446434655,60.359129557683],[25.1517330027759,60.3592790016247],[25.1502520028277,60.3583480018589],[25.1499510024369,60.3581540019057],[25.1496460027608,60.3579640021371],[25.1493330027159,60.3577690021378],[25.1489280020257,60.3575150021157],[25.148533002696,60.3572700016093],[25.1477840023299,60.3568020016111],[25.1477560028373,60.3567830016343],[25.1476810020766,60.3567360021648],[25.1476430021229,60.3567150020957],[25.1476110024458,60.3566950020727],[25.1461690024975,60.3557950019378],[25.1460250021522,60.355704002238],[25.1454060023851,60.3553170023778],[25.1448320019953,60.3549580020102],[25.1443820028272,60.3546770016424],[25.1439190021603,60.3543880018049],[25.1434110021161,60.3540680023365],[25.13742300207,60.3503420022816],[25.1370130020484,60.3500910023979],[25.1368790021643,60.3500090022137],[25.1356220026533,60.3492300022629],[25.134931002264,60.3488010022645],[25.1344350027732,60.3484930024501],[25.1346760021958,60.3478840022449],[25.1348600025871,60.3474200024312],[25.1348690021028,60.3473960022238],[25.1348930023103,60.3473330020165],[25.1349470021025,60.3471920018095],[25.1352480024934,60.3471900017173],[25.136451002212,60.3471880016251],[25.137147002832,60.3471940019017],[25.1376800022304,60.347196001994],[25.1382070022514,60.3471990021323],[25.1384300026426,60.3472040023629],[25.1394730021773,60.3472030023167],[25.1403940023814,60.3472030023167],[25.1419440028135,60.3472000021784],[25.1420950025824,60.3459460019065],[25.1422640022819,60.3459490020448],[25.1430470024173,60.3459630017912],[25.1439830024137,60.3459800016758],[25.1442090020439,60.345982001768],[25.1442450028047,60.345982001768],[25.1451140024093,60.3459980016065],[25.1457310020841,60.3460100021599],[25.1466270020346,60.3460250019523],[25.1474790026539,60.3460400017447],[25.1477490025145,60.3460450019753],[25.1486850025109,60.3460600017677],[25.1489580025099,60.3460650019983],[25.1511330020865,60.3461060020904],[25.1523400019896,60.3461290022517],[25.1524080024274,60.3461280022056],[25.1524840023349,60.3458620016301],[25.1524950019428,60.3458300019531],[25.1527090028183,60.3453870022084],[25.1527280027951,60.3453360016552],[25.152738002357,60.3452850020013],[25.1527370023109,60.3452330023013],[25.152678002288,60.3446770018422],[25.1526700028184,60.3445640020271],[25.1526690027723,60.3444500021659],[25.1526750021497,60.3443360023047],[25.1526730020574,60.3440540018908],[25.1526210023574,60.3437730024222],[25.1525180021042,60.3434960022388],[25.1523650022431,60.3432240022859],[25.1520480020137,60.3427450017805],[25.1519730021524,60.3426360021498],[25.1519060026599,60.3425460015968],[25.1518780022681,60.3425100017353],[25.1518300027525,60.3424430022428],[25.1517940019917,60.3423660022892],[25.1517590021763,60.3422870022434],[25.1517370020611,60.342212002382],[25.1517210022225,60.3421230018751],[25.1517230023148,60.3420590016217],[25.1517310026837,60.3419870018987],[25.1517540019457,60.3418780022681],[25.1519070027061,60.3415970019002],[25.1519950022676,60.3412840018552],[25.1520200025212,60.3409200021565],[25.1520700021289,60.340562001835],[25.1520690020828,60.3404630017662],[25.1520530022443,60.3403640016974],[25.1520220026134,60.3402660016747],[25.151987002798,60.340208001698],[25.151947002752,60.3401500017213],[25.1519000023832,60.3400940018367],[25.15179700213,60.339964002137],[25.1516250022921,60.3398120023221],[25.1515340025922,60.3397470020226],[25.1514780027077,60.3397070019766],[25.1513190025699,60.3396070018617],[25.1511890019709,60.3395260017236],[25.1510600023173,60.3394440024388],[25.1503130020434,60.3388630017262],[25.1467460021263,60.3336510023919],[25.1461760028203,60.3222930020205],[25.1522470021974,60.31610100156],[25.1542120019823,60.315563001931],[25.1578390019684,60.3146450018654],[25.1646230027494,60.3128410023104],[25.1664490024196,60.3123520022432],[25.1682780022281,60.3118750018299],[25.1696140026841,60.3114860018775],[25.1995850025459,60.2967560015883],[25.2295210025923,60.2978390020684],[25.2316160020769,60.2972860017476],[25.2328370026256,60.2969630021409],[25.2327950024874,60.2968220019339],[25.234616001927,60.296328001636],[25.2375240020311,60.2955140018697],[25.238179002559,60.2953320015707],[25.2404200024812,60.295689001846],[25.2434510019622,60.2961880023745],[25.2447070023263,60.296368001682],[25.2494720026309,60.297004002233],[25.2511510027167,60.2972270017248],[25.2528940021566,60.2974580015855],[25.2544970023349,60.2952250020323]]]]}}]}